[{"OBJECT_NAME":"COSMOS 2506","OBJECT_ID":"2015-029A","EPOCH":"2026-03-09T23:04:50.378016","MEAN_MOTION":14.54348608,"ECCENTRICITY":0.00085368,"INCLINATION":98.0605,"RA_OF_ASC_NODE":113.48,"ARG_OF_PERICENTER":100.8275,"MEAN_ANOMALY":259.3883,"EPHEMERIS_TYPE":0,"CLASSIFICATION_TYPE":"U","NORAD_CAT_ID":40699,"ELEMENT_SET_NO":999,"REV_AT_EPOCH":56846,"BSTAR":2.4503149e-5,"MEAN_MOTION_DOT":6.1e-7,"MEAN_MOTION_DDOT":0},{"OBJECT_NAME":"NOAA 16 DEB","OBJECT_ID":"2000-055KJ","EPOCH":"2026-03-08T07:31:14.535552","MEAN_MOTION":14.57621139,"ECCENTRICITY":0.00101388,"INCLINATION":98.8558,"RA_OF_ASC_NODE":201.7351,"ARG_OF_PERICENTER":265.043,"MEAN_ANOMALY":94.961,"EPHEMERIS_TYPE":0,"CLASSIFICATION_TYPE":"U","NORAD_CAT_ID":41405,"ELEMENT_SET_NO":999,"REV_AT_EPOCH":52076,"BSTAR":0.0078262601,"MEAN_MOTION_DOT":0.00035823,"MEAN_MOTION_DDOT":0}]
